[
  {
    "OBJECT_NAME": "STARLINK-32873",
    "OBJECT_ID": "25022D",
    "EPOCH": "2025-11-11T06:08:21.033600",
    "MEAN_MOTION": 15.30204144,
    "ECCENTRICITY": 8.38e-05,
    "INCLINATION": 53.1587,
    "RA_OF_ASC_NODE": 319.9942,
    "ARG_OF_PERICENTER": 79.9204,
    "MEAN_ANOMALY": 280.1892,
    "EPHEMERIS_TYPE": 0,
    "CLASSIFICATION_TYPE": "U",
    "NORAD_CAT_ID": 62857,
    "ELEMENT_SET_NO": 999,
    "REV_AT_EPOCH": 4376,
    "BSTAR": 0.00064496,
    "MEAN_MOTION_DOT": 0.00018794,
    "MEAN_MOTION_DDOT": 0.0,
    "TLE_LINE1": "1 62857U 25022D   25315.25579900  .00018794  00000+0  64496-3 0  9992",
    "TLE_LINE2": "2 62857  53.1587 319.9942 0000838  79.9204 280.1892 15.30204144 43760",
    "COMMENT": "Grouped by shell and plane from TLE"
  },
  {
    "OBJECT_NAME": "STARLINK-32866",
    "OBJECT_ID": "25022E",
    "EPOCH": "2025-11-11T06:32:29.938272",
    "MEAN_MOTION": 15.30208312,
    "ECCENTRICITY": 0.0001182,
    "INCLINATION": 53.1621,
    "RA_OF_ASC_NODE": 319.3834,
    "ARG_OF_PERICENTER": 109.4894,
    "MEAN_ANOMALY": 250.6234,
    "EPHEMERIS_TYPE": 0,
    "CLASSIFICATION_TYPE": "U",
    "NORAD_CAT_ID": 62858,
    "ELEMENT_SET_NO": 999,
    "REV_AT_EPOCH": 4377,
    "BSTAR": 0.0006886,
    "MEAN_MOTION_DOT": 0.00020095,
    "MEAN_MOTION_DDOT": 0.0,
    "TLE_LINE1": "1 62858U 25022E   25315.27256873  .00020095  00000+0  68860-3 0  9992",
    "TLE_LINE2": "2 62858  53.1621 319.3834 0001182 109.4894 250.6234 15.30208312 43775",
    "COMMENT": "Grouped by shell and plane from TLE"
  },
  {
    "OBJECT_NAME": "STARLINK-32869",
    "OBJECT_ID": "25022F",
    "EPOCH": "2025-11-11T06:49:12.774432",
    "MEAN_MOTION": 15.3020997,
    "ECCENTRICITY": 0.0001443,
    "INCLINATION": 53.1605,
    "RA_OF_ASC_NODE": 319.4472,
    "ARG_OF_PERICENTER": 77.9681,
    "MEAN_ANOMALY": 282.1482,
    "EPHEMERIS_TYPE": 0,
    "CLASSIFICATION_TYPE": "U",
    "NORAD_CAT_ID": 62859,
    "ELEMENT_SET_NO": 999,
    "REV_AT_EPOCH": 4377,
    "BSTAR": 0.00057378,
    "MEAN_MOTION_DOT": 0.00016678,
    "MEAN_MOTION_DDOT": 0.0,
    "TLE_LINE1": "1 62859U 25022F   25315.28417563  .00016678  00000+0  57378-3 0  9993",
    "TLE_LINE2": "2 62859  53.1605 319.4472 0001443  77.9681 282.1482 15.30209970 43776",
    "COMMENT": "Grouped by shell and plane from TLE"
  },
  {
    "OBJECT_NAME": "STARLINK-32831",
    "OBJECT_ID": "25022G",
    "EPOCH": "2025-11-11T07:01:22.232352",
    "MEAN_MOTION": 15.30206653,
    "ECCENTRICITY": 0.0001275,
    "INCLINATION": 53.1593,
    "RA_OF_ASC_NODE": 319.5122,
    "ARG_OF_PERICENTER": 92.7595,
    "MEAN_ANOMALY": 267.3552,
    "EPHEMERIS_TYPE": 0,
    "CLASSIFICATION_TYPE": "U",
    "NORAD_CAT_ID": 62860,
    "ELEMENT_SET_NO": 999,
    "REV_AT_EPOCH": 4376,
    "BSTAR": 0.000858,
    "MEAN_MOTION_DOT": 0.00025144,
    "MEAN_MOTION_DDOT": 0.0,
    "TLE_LINE1": "1 62860U 25022G   25315.29261843  .00025144  00000+0  85800-3 0  9993",
    "TLE_LINE2": "2 62860  53.1593 319.5122 0001275  92.7595 267.3552 15.30206653 43766",
    "COMMENT": "Grouped by shell and plane from TLE"
  },
  {
    "OBJECT_NAME": "STARLINK-32864",
    "OBJECT_ID": "25022J",
    "EPOCH": "2025-11-11T06:58:18.798240",
    "MEAN_MOTION": 15.30283854,
    "ECCENTRICITY": 0.0001067,
    "INCLINATION": 53.1607,
    "RA_OF_ASC_NODE": 319.4843,
    "ARG_OF_PERICENTER": 108.9151,
    "MEAN_ANOMALY": 251.1966,
    "EPHEMERIS_TYPE": 0,
    "CLASSIFICATION_TYPE": "U",
    "NORAD_CAT_ID": 62862,
    "ELEMENT_SET_NO": 999,
    "REV_AT_EPOCH": 4377,
    "BSTAR": 0.0026019,
    "MEAN_MOTION_DOT": 0.00077712,
    "MEAN_MOTION_DDOT": 0.0,
    "TLE_LINE1": "1 62862U 25022J   25315.29049535  .00077712  00000+0  26019-2 0  9991",
    "TLE_LINE2": "2 62862  53.1607 319.4843 0001067 108.9151 251.1966 15.30283854 43779",
    "COMMENT": "Grouped by shell and plane from TLE"
  },
  {
    "OBJECT_NAME": "STARLINK-32808",
    "OBJECT_ID": "25022K",
    "EPOCH": "2025-11-11T07:30:14.646528",
    "MEAN_MOTION": 15.3021372,
    "ECCENTRICITY": 0.0001326,
    "INCLINATION": 53.1594,
    "RA_OF_ASC_NODE": 319.6333,
    "ARG_OF_PERICENTER": 94.1522,
    "MEAN_ANOMALY": 265.963,
    "EPHEMERIS_TYPE": 0,
    "CLASSIFICATION_TYPE": "U",
    "NORAD_CAT_ID": 62863,
    "ELEMENT_SET_NO": 999,
    "REV_AT_EPOCH": 4377,
    "BSTAR": 0.0016308,
    "MEAN_MOTION_DOT": 0.00048274,
    "MEAN_MOTION_DDOT": 0.0,
    "TLE_LINE1": "1 62863U 25022K   25315.31266952  .00048274  00000+0  16308-2 0  9990",
    "TLE_LINE2": "2 62863  53.1594 319.6333 0001326  94.1522 265.9630 15.30213720 43773",
    "COMMENT": "Grouped by shell and plane from TLE"
  },
  {
    "OBJECT_NAME": "STARLINK-32862",
    "OBJECT_ID": "25022L",
    "EPOCH": "2025-11-11T07:37:50.484288",
    "MEAN_MOTION": 15.30219965,
    "ECCENTRICITY": 0.0001192,
    "INCLINATION": 53.1595,
    "RA_OF_ASC_NODE": 319.6698,
    "ARG_OF_PERICENTER": 89.4804,
    "MEAN_ANOMALY": 270.6334,
    "EPHEMERIS_TYPE": 0,
    "CLASSIFICATION_TYPE": "U",
    "NORAD_CAT_ID": 62864,
    "ELEMENT_SET_NO": 999,
    "REV_AT_EPOCH": 4377,
    "BSTAR": 0.0010954,
    "MEAN_MOTION_DOT": 0.00032245,
    "MEAN_MOTION_DDOT": 0.0,
    "TLE_LINE1": "1 62864U 25022L   25315.31794542  .00032245  00000+0  10954-2 0  9994",
    "TLE_LINE2": "2 62864  53.1595 319.6698 0001192  89.4804 270.6334 15.30219965 43771",
    "COMMENT": "Grouped by shell and plane from TLE"
  },
  {
    "OBJECT_NAME": "STARLINK-32841",
    "OBJECT_ID": "25022M",
    "EPOCH": "2025-11-11T07:08:57.804000",
    "MEAN_MOTION": 15.30228872,
    "ECCENTRICITY": 0.0001226,
    "INCLINATION": 53.1594,
    "RA_OF_ASC_NODE": 319.5471,
    "ARG_OF_PERICENTER": 98.1209,
    "MEAN_ANOMALY": 261.9931,
    "EPHEMERIS_TYPE": 0,
    "CLASSIFICATION_TYPE": "U",
    "NORAD_CAT_ID": 62865,
    "ELEMENT_SET_NO": 999,
    "REV_AT_EPOCH": 4376,
    "BSTAR": 0.0010947,
    "MEAN_MOTION_DOT": 0.00032234,
    "MEAN_MOTION_DDOT": 0.0,
    "TLE_LINE1": "1 62865U 25022M   25315.29789125  .00032234  00000+0  10947-2 0  9993",
    "TLE_LINE2": "2 62865  53.1594 319.5471 0001226  98.1209 261.9931 15.30228872 43765",
    "COMMENT": "Grouped by shell and plane from TLE"
  },
  {
    "OBJECT_NAME": "STARLINK-32695",
    "OBJECT_ID": "25022N",
    "EPOCH": "2025-11-11T06:27:56.391552",
    "MEAN_MOTION": 15.30208684,
    "ECCENTRICITY": 0.0001201,
    "INCLINATION": 53.1616,
    "RA_OF_ASC_NODE": 319.3671,
    "ARG_OF_PERICENTER": 99.0109,
    "MEAN_ANOMALY": 261.1028,
    "EPHEMERIS_TYPE": 0,
    "CLASSIFICATION_TYPE": "U",
    "NORAD_CAT_ID": 62866,
    "ELEMENT_SET_NO": 999,
    "REV_AT_EPOCH": 4377,
    "BSTAR": 0.001914,
    "MEAN_MOTION_DOT": 0.00056777,
    "MEAN_MOTION_DDOT": 0.0,
    "TLE_LINE1": "1 62866U 25022N   25315.26940268  .00056777  00000+0  19140-2 0  9990",
    "TLE_LINE2": "2 62866  53.1616 319.3671 0001201  99.0109 261.1028 15.30208684 43772",
    "COMMENT": "Grouped by shell and plane from TLE"
  },
  {
    "OBJECT_NAME": "STARLINK-32846",
    "OBJECT_ID": "25022P",
    "EPOCH": "2025-11-11T06:55:17.582880",
    "MEAN_MOTION": 15.30194482,
    "ECCENTRICITY": 0.0001617,
    "INCLINATION": 53.1609,
    "RA_OF_ASC_NODE": 319.4692,
    "ARG_OF_PERICENTER": 89.967,
    "MEAN_ANOMALY": 270.1516,
    "EPHEMERIS_TYPE": 0,
    "CLASSIFICATION_TYPE": "U",
    "NORAD_CAT_ID": 62867,
    "ELEMENT_SET_NO": 999,
    "REV_AT_EPOCH": 4377,
    "BSTAR": 0.0017865000000000001,
    "MEAN_MOTION_DOT": 0.0005292,
    "MEAN_MOTION_DDOT": 0.0,
    "TLE_LINE1": "1 62867U 25022P   25315.28839795  .00052920  00000+0  17865-2 0  9993",
    "TLE_LINE2": "2 62867  53.1609 319.4692 0001617  89.9670 270.1516 15.30194482 43773",
    "COMMENT": "Grouped by shell and plane from TLE"
  },
  {
    "OBJECT_NAME": "STARLINK-32822",
    "OBJECT_ID": "25022Q",
    "EPOCH": "2025-11-11T05:39:28.484640",
    "MEAN_MOTION": 15.30204969,
    "ECCENTRICITY": 0.0001406,
    "INCLINATION": 53.1599,
    "RA_OF_ASC_NODE": 319.8668,
    "ARG_OF_PERICENTER": 98.7873,
    "MEAN_ANOMALY": 261.3288,
    "EPHEMERIS_TYPE": 0,
    "CLASSIFICATION_TYPE": "U",
    "NORAD_CAT_ID": 62868,
    "ELEMENT_SET_NO": 999,
    "REV_AT_EPOCH": 4376,
    "BSTAR": 0.0019041,
    "MEAN_MOTION_DOT": 0.00056473,
    "MEAN_MOTION_DDOT": 0.0,
    "TLE_LINE1": "1 62868U 25022Q   25315.23574635  .00056473  00000+0  19041-2 0  9993",
    "TLE_LINE2": "2 62868  53.1599 319.8668 0001406  98.7873 261.3288 15.30204969 43767",
    "COMMENT": "Grouped by shell and plane from TLE"
  },
  {
    "OBJECT_NAME": "STARLINK-32813",
    "OBJECT_ID": "25022R",
    "EPOCH": "2025-11-11T07:34:49.411488",
    "MEAN_MOTION": 15.30264925,
    "ECCENTRICITY": 0.0001762,
    "INCLINATION": 53.1589,
    "RA_OF_ASC_NODE": 319.6546,
    "ARG_OF_PERICENTER": 85.9108,
    "MEAN_ANOMALY": 274.2094,
    "EPHEMERIS_TYPE": 0,
    "CLASSIFICATION_TYPE": "U",
    "NORAD_CAT_ID": 62869,
    "ELEMENT_SET_NO": 999,
    "REV_AT_EPOCH": 4377,
    "BSTAR": 0.0017467,
    "MEAN_MOTION_DOT": 0.0005184,
    "MEAN_MOTION_DDOT": 0.0,
    "TLE_LINE1": "1 62869U 25022R   25315.31584967  .00051840  00000+0  17467-2 0  9995",
    "TLE_LINE2": "2 62869  53.1589 319.6546 0001762  85.9108 274.2094 15.30264925 43771",
    "COMMENT": "Grouped by shell and plane from TLE"
  },
  {
    "OBJECT_NAME": "STARLINK-32861",
    "OBJECT_ID": "25022S",
    "EPOCH": "2025-11-11T06:30:59.046336",
    "MEAN_MOTION": 15.30207309,
    "ECCENTRICITY": 0.0001625,
    "INCLINATION": 53.162,
    "RA_OF_ASC_NODE": 319.3823,
    "ARG_OF_PERICENTER": 65.857,
    "MEAN_ANOMALY": 294.26,
    "EPHEMERIS_TYPE": 0,
    "CLASSIFICATION_TYPE": "U",
    "NORAD_CAT_ID": 62870,
    "ELEMENT_SET_NO": 999,
    "REV_AT_EPOCH": 4377,
    "BSTAR": 0.00056057,
    "MEAN_MOTION_DOT": 0.00016283,
    "MEAN_MOTION_DDOT": 0.0,
    "TLE_LINE1": "1 62870U 25022S   25315.27151674  .00016283  00000+0  56057-3 0  9998",
    "TLE_LINE2": "2 62870  53.1620 319.3823 0001625  65.8570 294.2600 15.30207309 43770",
    "COMMENT": "Grouped by shell and plane from TLE"
  }
]